0 N-2 R/B(2)
1 12787U 81012C   13282.60229649  .00017383  00000-0  15655-2 0  9931
2 12787 028.1887 345.0867 6243310 021.1750 027.0704 03.71807780352998
0 N-2 R/B(2)
1 12787U 81012C   13283.69477671  .00019428  00000-0  17541-2 0  9940
2 12787 028.1881 344.3446 6243060 022.3891 049.4335 03.71842884353047
0 N-2 R/B(2)
1 12787U 81012C   13286.08658991  .00018574  00000-0  16971-2 0  9961
2 12787 028.1874 342.7179 6242420 025.0531 011.5396 03.71923300353123
0 N-2 R/B(2)
1 12787U 81012C   13287.16217025  .00018875  00000-0  17294-2 0  9974
2 12787 028.1868 341.9862 6242184 026.2508 011.7280 03.71955723353162
0 N-2 R/B(2)
1 12787U 81012C   13288.50843380  .00022053  00000-0  20179-2 0  9982
2 12787 028.1862 341.0700 6241773 027.7499 014.5602 03.72014195353211
0 N-2 R/B(2)
1 12787U 81012C   13289.58444281  .00021956  00000-0  20092-2 0  9994
2 12787 028.1856 340.3376 6241460 028.9491 015.6869 03.72056834353250
0 N-2 R/B(2)
1 12787U 81012C   13290.38440184  .00021580  00000-0  19740-2 0    06
2 12787 028.1855 339.7940 6241252 029.8383 007.1994 03.72085020353284
0 N-2 R/B(2)
1 12787U 81012C   13291.46283399  .00020043  00000-0  18297-2 0    19
2 12787 028.1852 339.0613 6240968 031.0372 011.8538 03.72129205353322
0 N-2 R/B(2)
1 12787U 81012C   13292.54019443  .00018824  00000-0  17202-2 0    26
2 12787 028.1843 338.3258 6240614 032.2415 015.2357 03.72170324353367
0 N-2 R/B(2)
1 12787U 81012C   13293.61507032  .00019362  00000-0  17718-2 0    32
2 12787 028.1840 337.5934 6240248 033.4408 015.4489 03.72209579353402
0 N-2 R/B(2)
1 12787U 81012C   13294.71106623  .00019749  00000-0  18100-2 0    41
2 12787 028.1835 336.8473 6239912 034.6613 044.1085 03.72247389353450
0 N-2 R/B(2)
1 12787U 81012C   13295.52819069  .00018333  00000-0  16850-2 0    55
2 12787 028.1832 336.2914 6239649 035.5715 059.1698 03.72276098353489
